{"fetched_at":"2026-06-15T10:34:40Z","count":3953,"tles":[{"name":"HST","line1":"1 20580U 90037B   26166.12212987  .00005845  00000+0  18362-3 0  9991","line2":"2 20580  28.4718  94.6872 0001878 120.6716 239.4065 15.30726834788258","category":"Other"},{"name":"SL-8 R/B","line1":"1 21938U 92020B   26166.17263656  .00000062  00000+0  48179-4 0  9993","line2":"2 21938  82.9306  81.3537 0029853  28.0734  81.5254 13.75548620714537","category":"Other"},{"name":"OKEAN-3","line1":"1 21397U 91039A   26165.61265405  .00002373  00000+0  16364-3 0  9990","line2":"2 21397  82.5158 242.8775 0014300   7.6692 352.4751 15.05312595879610","category":"Other"},{"name":"SL-16 R/B","line1":"1 23705U 95058B   26165.87117157  .00000256  00000+0  15524-3 0  9993","line2":"2 23705  71.0218 336.2211 0013642 323.6825  36.3371 14.15507081581606","category":"Other"},{"name":"INTERCOSMOS 25","line1":"1 21819U 91086A   26165.47066083  .00000594  00000+0  11849-3 0  9992","line2":"2 21819  82.6052 251.4538 1484112 268.2589  74.8557 12.12192313508414","category":"Other"},{"name":"ERS-1","line1":"1 21574U 91050A   26166.07958582  .00000309  00000+0  11360-3 0  9994","line2":"2 21574  98.7797 186.7260 0030710 273.4717  86.2958 14.39516896829740","category":"Other"},{"name":"COSMOS 2084","line1":"1 20663U 90055A   26165.93687029  .00001904  00000+0  14330-3 0  9997","line2":"2 20663  62.7909   3.7719 0005550 275.4979  84.5489 15.06107862950960","category":"Other"},{"name":"SL-16 R/B","line1":"1 22803U 93059B   26166.16076333  .00000075  00000+0  60821-4 0  9993","line2":"2 22803  70.9887 165.5770 0015146  57.5199 302.7387 14.17248072693341","category":"Other"},{"name":"COSMOS 2221","line1":"1 22236U 92080A   26166.13312211  .00001262  00000+0  10864-3 0  9991","line2":"2 22236  82.5031 185.7326 0013111 219.5760 140.4506 14.96528632795361","category":"Other"},{"name":"SL-16 R/B","line1":"1 22285U 92093B   26166.19302571 -.00000306  00000+0 -13250-3 0  9995","line2":"2 22285  71.0198 159.5779 0004086 191.8989 168.2038 14.15462168726958","category":"Other"},{"name":"SL-8 R/B","line1":"1 20775U 90078B   26165.98234020  .00018479  00000+0  52043-3 0  9998","line2":"2 20775  82.9001 163.6367 0351454  45.9018 317.0555 14.92233297823791","category":"Other"},{"name":"COSMOS 2151","line1":"1 21422U 91042A   26166.12574367  .00001566  00000+0  12217-3 0  9996","line2":"2 21422  82.4960 349.6706 0013836  90.1401 270.1409 15.00432737877808","category":"Other"},{"name":"COSMOS 2228","line1":"1 22286U 92094A   26166.21684046  .00001824  00000+0  15358-3 0  9995","line2":"2 22286  82.5174 143.9301 0017076 339.2322  20.8204 14.97579996790654","category":"Other"},{"name":"COSMOS 2242","line1":"1 22626U 93024A   26166.10853910  .00001523  00000+0  13017-3 0  9999","line2":"2 22626  82.5180 173.5316 0015545 343.6135  16.4583 14.96897963794969","category":"Other"},{"name":"SL-16 R/B","line1":"1 22220U 92076B   26166.21628148  .00000100  00000+0  73883-4 0  9998","line2":"2 22220  71.0004 342.9331 0014623 301.2216 231.8829 14.16871518735648","category":"Other"},{"name":"SL-16 R/B","line1":"1 23088U 94023B   26166.19861142  .00000316  00000+0  18797-3 0  9996","line2":"2 23088  70.9994 226.1076 0002898 188.0889 172.0187 14.15024045659882","category":"Other"},{"name":"ARIANE 40 R/B","line1":"1 22830U 93061H   26166.18037981  .00000158  00000+0  73702-4 0  9998","line2":"2 22830  98.4819 233.0790 0010586   2.3147 357.8084 14.32907143708067","category":"Other"},{"name":"SL-16 R/B","line1":"1 22566U 93016B   26165.96087176  .00000327  00000+0  19243-3 0  9997","line2":"2 22566  71.0084  10.8837 0010356 186.6267 173.4721 14.15312861715933","category":"Other"},{"name":"SL-14 R/B","line1":"1 21423U 91042B   26165.99221167  .00000319  00000+0  37389-4 0  9991","line2":"2 21423  82.4926 128.9539 0015461 282.8416  77.1071 14.81901274867483","category":"Other"},{"name":"COSMOS 2219","line1":"1 22219U 92076A   26166.13923069  .00000219  00000+0  13937-3 0  9991","line2":"2 22219  71.0577 174.3531 0016502  47.5035 312.7479 14.14097738732152","category":"Other"},{"name":"COSMOS 2278","line1":"1 23087U 94023A   26166.19595676  .00000164  00000+0  11011-3 0  9994","line2":"2 23087  71.0548 331.0911 0010614 245.5710 114.4306 14.14397516658594","category":"Other"}]}