OBJECT_NAME,OBJECT_ID,EPOCH,MEAN_MOTION,ECCENTRICITY,INCLINATION,RA_OF_ASC_NODE,ARG_OF_PERICENTER,MEAN_ANOMALY,EPHEMERIS_TYPE,CLASSIFICATION_TYPE,NORAD_CAT_ID,ELEMENT_SET_NO,REV_AT_EPOCH,BSTAR,MEAN_MOTION_DOT,MEAN_MOTION_DDOT
HST,1990-037B,2026-06-15T02:55:52.020768,15.30726834,.0001878,28.4718,94.6872,120.6716,239.4065,0,U,20580,999,78825,.18362E-3,.5845E-4,0
COSMOS 2084,1990-055A,2026-06-14T22:29:05.593056,15.06107862,.000555,62.7909,3.7719,275.4979,84.5489,0,U,20663,999,95096,.1433E-3,.1904E-4,0
SL-8 R/B,1990-078B,2026-06-14T23:34:34.193280,14.92233297,.0351454,82.9001,163.6367,45.9018,317.0555,0,U,20775,999,82379,.52043E-3,.18479E-3,0
OKEAN-3,1991-039A,2026-06-14T14:42:13.309920,15.05312595,.00143007,82.5158,242.8775,7.6692,352.4751,0,U,21397,999,87961,.16363504E-3,.2373E-4,0
COSMOS 2151,1991-042A,2026-06-15T03:01:04.253088,15.00432737,.0013836,82.4960,349.6706,90.1401,270.1409,0,U,21422,999,87780,.12217E-3,.1566E-4,0
SL-14 R/B,1991-042B,2026-06-14T23:48:47.088288,14.81901274,.0015461,82.4926,128.9539,282.8416,77.1071,0,U,21423,999,86748,.37389E-4,.319E-5,0
ERS-1,1991-050A,2026-06-15T01:54:36.214848,14.39516896,.003071,98.7797,186.7260,273.4717,86.2958,0,U,21574,999,82974,.1136E-3,.309E-5,0
INTERCOSMOS 25,1991-086A,2026-06-14T11:17:45.095712,12.12192313,.14841129,82.6052,251.4538,268.2589,74.8557,0,U,21819,999,50841,.11849233E-3,.594E-5,0
SL-8 R/B,1992-020B,2026-06-15T04:08:35.798784,13.75548620,.0029853,82.9306,81.3537,28.0734,81.5254,0,U,21938,999,71453,.48179E-4,.62E-6,0
COSMOS 2219,1992-076A,2026-06-15T03:20:29.531616,14.14097738,.0016502,71.0577,174.3531,47.5035,312.7479,0,U,22219,999,73215,.13937E-3,.219E-5,0
SL-16 R/B,1992-076B,2026-06-15T05:11:26.719872,14.16871518,.0014623,71.0004,342.9331,301.2216,231.8829,0,U,22220,999,73564,.73883E-4,.1E-5,0
COSMOS 2221,1992-080A,2026-06-15T03:11:41.750304,14.96528632,.0013111,82.5031,185.7326,219.5760,140.4506,0,U,22236,999,79536,.10864E-3,.1262E-4,0
SL-16 R/B,1992-093B,2026-06-15T04:37:57.421344,14.15462168,.0004086,71.0198,159.5779,191.8989,168.2038,0,U,22285,999,72695,-.1325E-3,-.306E-5,0
COSMOS 2228,1992-094A,2026-06-15T05:12:15.015744,14.97579996,.0017076,82.5174,143.9301,339.2322,20.8204,0,U,22286,999,79065,.15358E-3,.1824E-4,0
SL-16 R/B,1993-016B,2026-06-14T23:03:39.320064,14.15312861,.0010356,71.0084,10.8837,186.6267,173.4721,0,U,22566,999,71593,.19243E-3,.327E-5,0
COSMOS 2242,1993-024A,2026-06-15T02:36:17.778240,14.96897963,.0015545,82.5180,173.5316,343.6135,16.4583,0,U,22626,999,79496,.13017E-3,.1523E-4,0
SL-16 R/B,1993-059B,2026-06-15T03:51:29.951712,14.17248072,.0015146,70.9887,165.5770,57.5199,302.7387,0,U,22803,999,69334,.60821E-4,.75E-6,0
ARIANE 40 R/B,1993-061H,2026-06-15T04:19:44.815584,14.32907143,.0010586,98.4819,233.0790,2.3147,357.8084,0,U,22830,999,70806,.73702E-4,.158E-5,0
COSMOS 2278,1994-023A,2026-06-15T04:42:10.664064,14.14397516,.0010614,71.0548,331.0911,245.5710,114.4306,0,U,23087,999,65859,.11011E-3,.164E-5,0
SL-16 R/B,1994-023B,2026-06-15T04:46:00.026688,14.15024045,.0002898,70.9994,226.1076,188.0889,172.0187,0,U,23088,999,65988,.18797E-3,.316E-5,0
SL-16 R/B,1995-058B,2026-06-14T20:54:29.223648,14.15507081,.00136424,71.0218,336.2211,323.6825,36.3371,0,U,23705,999,58160,.15523676E-3,.256E-5,0
